{"type": "FeatureCollection", "features": [ {"type": "Feature", "properties": {"norad_id": 34955, "name": "COSMOS 2251 DEB", "group": "cosmos-2251-debris", "lat": 50.11225235555494, "lon": -84.14756041739703, "alt_km": 557.1536079033522, "timestamp": "2025-12-08T03:50:07.391637+00:00", "meta": {"OBJECT_NAME": "COSMOS 2251 DEB", "OBJECT_ID": "1993-036AEJ", "EPOCH": "2025-12-03T01:58:24.293568", "MEAN_MOTION": 15.00189355, "ECCENTRICITY": 0.00783052, "INCLINATION": 74.0373, "RA_OF_ASC_NODE": 266.1437, "ARG_OF_PERICENTER": 338.174, "MEAN_ANOMALY": 21.6115, "EPHEMERIS_TYPE": 0, "CLASSIFICATION_TYPE": "U", "NORAD_CAT_ID": 34955, "ELEMENT_SET_NO": 999, "REV_AT_EPOCH": 89889, "BSTAR": 0.0013091752, "MEAN_MOTION_DOT": 0.00017463, "MEAN_MOTION_DDOT": 0}, "tle": {"line1": "1 34955U 93036AEJ 25337.08222562  .00017463  00000+0  13092-2 0  9991", "line2": "2 34955  74.0373 266.1437 0078305 338.1740  21.6115 15.00189355898895"}}, "geometry": {"type": "Point", "coordinates": [-84.14756041739703, 50.11225235555494]}}, {"type": "Feature", "properties": {"norad_id": 34962, "name": "COSMOS 2251 DEB", "group": "cosmos-2251-debris", "lat": 10.860569039774397, "lon": -154.9303029423243, "alt_km": 730.8357449983114, "timestamp": "2025-12-08T03:50:07.391647+00:00", "meta": {"OBJECT_NAME": "COSMOS 2251 DEB", "OBJECT_ID": "1993-036AER", "EPOCH": "2025-12-06T15:15:59.750208", "MEAN_MOTION": 14.46490206, "ECCENTRICITY": 0.00186998, "INCLINATION": 74.0296, "RA_OF_ASC_NODE": 204.7652, "ARG_OF_PERICENTER": 318.2038, "MEAN_ANOMALY": 41.7692, "EPHEMERIS_TYPE": 0, "CLASSIFICATION_TYPE": "U", "NORAD_CAT_ID": 34962, "ELEMENT_SET_NO": 999, "REV_AT_EPOCH": 87490, "BSTAR": 0.00079418747, "MEAN_MOTION_DOT": 2.838e-05, "MEAN_MOTION_DDOT": 0}, "tle": {"line1": "1 34962U 93036AER 25340.63610822  .00002838  00000+0  79419-3 0  9990", "line2": "2 34962  74.0296 204.7652 0018699 318.2038  41.7692 14.46490206874901"}}, "geometry": {"type": "Point", "coordinates": [-154.9303029423243, 10.860569039774397]}}, {"type": "Feature", "properties": {"norad_id": 34963, "name": "COSMOS 2251 DEB", "group": "cosmos-2251-debris", "lat": -13.947105524068464, "lon": -124.66881106834329, "alt_km": 708.6705831069548, "timestamp": "2025-12-08T03:50:07.391657+00:00", "meta": {"OBJECT_NAME": "COSMOS 2251 DEB", "OBJECT_ID": "1993-036AES", "EPOCH": "2025-12-05T13:42:49.417056", "MEAN_MOTION": 14.50965864, "ECCENTRICITY": 0.00426066, "INCLINATION": 74.1725, "RA_OF_ASC_NODE": 56.1172, "ARG_OF_PERICENTER": 253.8382, "MEAN_ANOMALY": 105.8088, "EPHEMERIS_TYPE": 0, "CLASSIFICATION_TYPE": "U", "NORAD_CAT_ID": 34963, "ELEMENT_SET_NO": 999, "REV_AT_EPOCH": 86697, "BSTAR": 0.0025671523, "MEAN_MOTION_DOT": 0.00010254, "MEAN_MOTION_DDOT": 0}, "tle": {"line1": "1 34963U 93036AES 25339.57140529  .00010254  00000+0  25672-2 0  9996", "line2": "2 34963  74.1725  56.1172 0042606 253.8382 105.8088 14.50965864866978"}}, "geometry": {"type": "Point", "coordinates": [-124.66881106834329, -13.947105524068464]}}, {"type": "Feature", "properties": {"norad_id": 34964, "name": "COSMOS 2251 DEB", "group": "cosmos-2251-debris", "lat": -31.5621326485051, "lon": -14.357591914090106, "alt_km": 952.5629235886672, "timestamp": "2025-12-08T03:50:07.391667+00:00", "meta": {"OBJECT_NAME": "COSMOS 2251 DEB", "OBJECT_ID": "1993-036AET", "EPOCH": "2025-12-06T09:08:23.227296", "MEAN_MOTION": 14.00561346, "ECCENTRICITY": 0.02131727, "INCLINATION": 73.9719, "RA_OF_ASC_NODE": 358.9078, "ARG_OF_PERICENTER": 218.6047, "MEAN_ANOMALY": 139.9683, "EPHEMERIS_TYPE": 0, "CLASSIFICATION_TYPE": "U", "NORAD_CAT_ID": 34964, "ELEMENT_SET_NO": 999, "REV_AT_EPOCH": 84389, "BSTAR": 0.0026176283, "MEAN_MOTION_DOT": 4.714e-05, "MEAN_MOTION_DDOT": 0}, "tle": {"line1": "1 34964U 93036AET 25340.38082439  .00004714  00000+0  26176-2 0  9997", "line2": "2 34964  73.9719 358.9078 0213172 218.6047 139.9683 14.00561346843899"}}, "geometry": {"type": "Point", "coordinates": [-14.357591914090106, -31.5621326485051]}}, {"type": "Feature", "properties": {"norad_id": 34965, "name": "COSMOS 2251 DEB", "group": "cosmos-2251-debris", "lat": -35.81107091188072, "lon": 125.13374774400694, "alt_km": 725.7777178361794, "timestamp": "2025-12-08T03:50:07.391676+00:00", "meta": {"OBJECT_NAME": "COSMOS 2251 DEB", "OBJECT_ID": "1993-036AEU", "EPOCH": "2025-12-06T10:34:26.785056", "MEAN_MOTION": 14.48681639, "ECCENTRICITY": 0.00265723, "INCLINATION": 74.0502, "RA_OF_ASC_NODE": 140.2593, "ARG_OF_PERICENTER": 268.4529, "MEAN_ANOMALY": 91.3587, "EPHEMERIS_TYPE": 0, "CLASSIFICATION_TYPE": "U", "NORAD_CAT_ID": 34965, "ELEMENT_SET_NO": 999, "REV_AT_EPOCH": 87022, "BSTAR": 0.00064326633, "MEAN_MOTION_DOT": 2.407e-05, "MEAN_MOTION_DDOT": 0}, "tle": {"line1": "1 34965U 93036AEU 25340.44058779  .00002407  00000+0  64327-3 0  9993", "line2": "2 34965  74.0502 140.2593 0026572 268.4529  91.3587 14.48681639870221"}}, "geometry": {"type": "Point", "coordinates": [125.13374774400694, -35.81107091188072]}}, {"type": "Feature", "properties": {"norad_id": 34967, "name": "COSMOS 2251 DEB", "group": "cosmos-2251-debris", "lat": -51.238212351780284, "lon": -118.54470401971545, "alt_km": 757.4971787844324, "timestamp": "2025-12-08T03:50:07.391686+00:00", "meta": {"OBJECT_NAME": "COSMOS 2251 DEB", "OBJECT_ID": "1993-036AEW", "EPOCH": "2025-12-07T01:29:10.329504", "MEAN_MOTION": 14.44220775, "ECCENTRICITY": 0.00375566, "INCLINATION": 73.9939, "RA_OF_ASC_NODE": 264.4492, "ARG_OF_PERICENTER": 52.1323, "MEAN_ANOMALY": 308.3222, "EPHEMERIS_TYPE": 0, "CLASSIFICATION_TYPE": "U", "NORAD_CAT_ID": 34967, "ELEMENT_SET_NO": 999, "REV_AT_EPOCH": 64875, "BSTAR": 0.0012569981, "MEAN_MOTION_DOT": 4.329e-05, "MEAN_MOTION_DDOT": 0}, "tle": {"line1": "1 34967U 93036AEW 25341.06192511  .00004329  00000+0  12570-2 0  9994", "line2": "2 34967  73.9939 264.4492 0037556  52.1323 308.3222 14.44220775648750"}}, "geometry": {"type": "Point", "coordinates": [-118.54470401971545, -51.238212351780284]}}, {"type": "Feature", "properties": {"norad_id": 34968, "name": "COSMOS 2251 DEB", "group": "cosmos-2251-debris", "lat": -73.97490353469607, "lon": 170.62941597718032, "alt_km": 718.3914367027373, "timestamp": "2025-12-08T03:50:07.391697+00:00", "meta": {"OBJECT_NAME": "COSMOS 2251 DEB", "OBJECT_ID": "1993-036AEX", "EPOCH": "2025-12-06T12:45:13.014432", "MEAN_MOTION": 14.59388463, "ECCENTRICITY": 0.00863236, "INCLINATION": 74.0389, "RA_OF_ASC_NODE": 258.9028, "ARG_OF_PERICENTER": 20.8066, "MEAN_ANOMALY": 339.6577, "EPHEMERIS_TYPE": 0, "CLASSIFICATION_TYPE": "U", "NORAD_CAT_ID": 34968, "ELEMENT_SET_NO": 999, "REV_AT_EPOCH": 88387, "BSTAR": 0.00035467605, "MEAN_MOTION_DOT": 1.737e-05, "MEAN_MOTION_DDOT": 0}, "tle": {"line1": "1 34968U 93036AEX 25340.53140063  .00001737  00000+0  35468-3 0  9993", "line2": "2 34968  74.0389 258.9028 0086323  20.8066 339.6577 14.59388463883876"}}, "geometry": {"type": "Point", "coordinates": [170.62941597718032, -73.97490353469607]}}, {"type": "Feature", "properties": {"norad_id": 34969, "name": "COSMOS 2251 DEB", "group": "cosmos-2251-debris", "lat": 73.98884022415228, "lon": 118.8690824479955, "alt_km": 764.1277908521188, "timestamp": "2025-12-08T03:50:07.391733+00:00", "meta": {"OBJECT_NAME": "COSMOS 2251 DEB", "OBJECT_ID": "1993-036AEY", "EPOCH": "2025-12-05T21:46:24.145824", "MEAN_MOTION": 14.32239055, "ECCENTRICITY": 0.00739977, "INCLINATION": 74.0148, "RA_OF_ASC_NODE": 35.6283, "ARG_OF_PERICENTER": 170.4828, "MEAN_ANOMALY": 189.7746, "EPHEMERIS_TYPE": 0, "CLASSIFICATION_TYPE": "U", "NORAD_CAT_ID": 34969, "ELEMENT_SET_NO": 999, "REV_AT_EPOCH": 65039, "BSTAR": 0.00053319919, "MEAN_MOTION_DOT": 1.456e-05, "MEAN_MOTION_DDOT": 0}, "tle": {"line1": "1 34969U 93036AEY 25339.90722391  .00001456  00000+0  53320-3 0  9998", "line2": "2 34969  74.0148  35.6283 0073997 170.4828 189.7746 14.32239055650398"}}, "geometry": {"type": "Point", "coordinates": [118.8690824479955, 73.98884022415228]}}, {"type": "Feature", "properties": {"norad_id": 34971, "name": "COSMOS 2251 DEB", "group": "cosmos-2251-debris", "lat": 34.284071584125876, "lon": -54.98276480911397, "alt_km": 732.7027107469248, "timestamp": "2025-12-08T03:50:07.391746+00:00", "meta": {"OBJECT_NAME": "COSMOS 2251 DEB", "OBJECT_ID": "1993-036AFA", "EPOCH": "2025-12-06T14:16:08.154912", "MEAN_MOTION": 14.55618796, "ECCENTRICITY": 0.00698698, "INCLINATION": 73.978, "RA_OF_ASC_NODE": 296.6954, "ARG_OF_PERICENTER": 163.9786, "MEAN_ANOMALY": 313.6169, "EPHEMERIS_TYPE": 0, "CLASSIFICATION_TYPE": "U", "NORAD_CAT_ID": 34971, "ELEMENT_SET_NO": 999, "REV_AT_EPOCH": 66083, "BSTAR": 0.00032064289, "MEAN_MOTION_DOT": 1.416e-05, "MEAN_MOTION_DDOT": 0}, "tle": {"line1": "1 34971U 93036AFA 25340.59453883  .00001416  00000+0  32064-3 0  9993", "line2": "2 34971  73.9780 296.6954 0069869 163.9786 313.6169 14.55618796660833"}}, "geometry": {"type": "Point", "coordinates": [-54.98276480911397, 34.284071584125876]}}, {"type": "Feature", "properties": {"norad_id": 34972, "name": "COSMOS 2251 DEB", "group": "cosmos-2251-debris", "lat": 2.832859090527325, "lon": 59.623077396400724, "alt_km": 674.5520265375199, "timestamp": "2025-12-08T03:50:07.391759+00:00", "meta": {"OBJECT_NAME": "COSMOS 2251 DEB", "OBJECT_ID": "1993-036AFB", "EPOCH": "2025-12-03T06:34:34.182336", "MEAN_MOTION": 14.72590746, "ECCENTRICITY": 0.0034486, "INCLINATION": 73.9887, "RA_OF_ASC_NODE": 68.345, "ARG_OF_PERICENTER": 228.4328, "MEAN_ANOMALY": 162.7226, "EPHEMERIS_TYPE": 0, "CLASSIFICATION_TYPE": "U", "NORAD_CAT_ID": 34972, "ELEMENT_SET_NO": 999, "REV_AT_EPOCH": 87511, "BSTAR": 0.0021523, "MEAN_MOTION_DOT": 0.0001382, "MEAN_MOTION_DDOT": 0}, "tle": {"line1": "1 34972U 93036AFB 25337.27400674  .00013820  00000+0  21523-2 0  9994", "line2": "2 34972  73.9887  68.3450 0034486 228.4328 162.7226 14.72590746875112"}}, "geometry": {"type": "Point", "coordinates": [59.623077396400724, 2.832859090527325]}}]}